start=new Date('2023-03-15T00:00:00.000Z').valueOf();
sats=[{"OBJECT_ID":"2020-038M","TIME_SYSTEM":"UTC","BSTAR":"-0.00005623200000","MEAN_MOTION":"15.06371100","REV_AT_EPOCH":"15177","EPHEMERIS_TYPE":"0","RA_OF_ASC_NODE":"94.0128","CENTER_NAME":"EARTH","MEAN_MOTION_DOT":"-0.00001118","LAUNCH_DATE":"2020-06-13","SEMIMAJOR_AXIS":"6925.437","OBJECT_NAME":"STARLINK-1480","ELEMENT_SET_NO":"999","GP_ID":"228104443","COUNTRY_CODE":"US","MEAN_ELEMENT_THEORY":"SGP4","ARG_OF_PERICENTER":"114.0753","TLE_LINE2":"2 45741  53.0548  94.0128 0001781 114.0753 246.0423 15.06371100151776","RCS_SIZE":"LARGE","SITE":"AFETR","DECAY_DATE":null,"TLE_LINE1":"1 45741U 20038M   23073.75445426 -.00001118  00000-0 -56232-4 0  9991","CLASSIFICATION_TYPE":"U","MEAN_MOTION_DDOT":"0.0000000000000","ECCENTRICITY":"0.00017810","OBJECT_TYPE":"PAYLOAD","NORAD_CAT_ID":"45741","EPOCH":"2023-03-14T18:06:24.848064","REF_FRAME":"TEME","APOAPSIS":"548.536","MEAN_ANOMALY":"246.0423","FILE":"3860643","INCLINATION":"53.0548","PERIAPSIS":"546.069","PERIOD":"95.594"},{"REF_FRAME":"TEME","EPOCH":"2023-03-14T17:55:49.383840","APOAPSIS":"548.232","PERIAPSIS":"546.211","FILE":"3860643","MEAN_ANOMALY":"249.6765","INCLINATION":"53.0533","PERIOD":"95.592","TLE_LINE1":"1 45742U 20038N   23073.74709935  .00026907  00000-0  18185-2 0  9993","CLASSIFICATION_TYPE":"U","DECAY_DATE":null,"ECCENTRICITY":"0.00014590","OBJECT_TYPE":"PAYLOAD","NORAD_CAT_ID":"45742","MEAN_MOTION_DDOT":"0.0000000000000","MEAN_MOTION_DOT":"0.00026907","CENTER_NAME":"EARTH","RA_OF_ASC_NODE":"94.0478","LAUNCH_DATE":"2020-06-13","SEMIMAJOR_AXIS":"6925.357","TLE_LINE2":"2 45742  53.0533  94.0478 0001459 110.4381 249.6765 15.06397300151754","RCS_SIZE":"LARGE","OBJECT_NAME":"STARLINK-1481","ELEMENT_SET_NO":"999","GP_ID":"228105692","COUNTRY_CODE":"US","ARG_OF_PERICENTER":"110.4381","MEAN_ELEMENT_THEORY":"SGP4","SITE":"AFETR","MEAN_MOTION":"15.06397300","OBJECT_ID":"2020-038N","TIME_SYSTEM":"UTC","BSTAR":"0.00181850000000","REV_AT_EPOCH":"15175","EPHEMERIS_TYPE":"0"},{"SITE":"AFETR","GP_ID":"228105433","COUNTRY_CODE":"US","ELEMENT_SET_NO":"999","ARG_OF_PERICENTER":"87.1735","MEAN_ELEMENT_THEORY":"SGP4","OBJECT_NAME":"STARLINK-1483","TLE_LINE2":"2 45743  53.0535  93.8969 0001328  87.1735 272.9406 15.06402043151760","RCS_SIZE":"LARGE","LAUNCH_DATE":"2020-06-13","SEMIMAJOR_AXIS":"6925.342","RA_OF_ASC_NODE":"93.8969","MEAN_MOTION_DOT":"0.00000729","CENTER_NAME":"EARTH","EPHEMERIS_TYPE":"0","REV_AT_EPOCH":"15176","BSTAR":"0.00006782000000","OBJECT_ID":"2020-038P","TIME_SYSTEM":"UTC","MEAN_MOTION":"15.06402043","PERIOD":"95.592","INCLINATION":"53.0535","FILE":"3860643","MEAN_ANOMALY":"272.9406","PERIAPSIS":"546.288","APOAPSIS":"548.127","REF_FRAME":"TEME","EPOCH":"2023-03-14T18:20:58.949952","MEAN_MOTION_DDOT":"0.0000000000000","NORAD_CAT_ID":"45743","OBJECT_TYPE":"PAYLOAD","ECCENTRICITY":"0.00013280","DECAY_DATE":null,"CLASSIFICATION_TYPE":"U","TLE_LINE1":"1 45743U 20038P   23073.76457118  .00000729  00000-0  67820-4 0  9995"},{"DECAY_DATE":null,"TLE_LINE1":"1 45744U 20038Q   23073.33796248  .00002355  00000-0  17696-3 0  9991","CLASSIFICATION_TYPE":"U","MEAN_MOTION_DDOT":"0.0000000000000","ECCENTRICITY":"0.00015180","OBJECT_TYPE":"PAYLOAD","NORAD_CAT_ID":"45744","REF_FRAME":"TEME","EPOCH":"2023-03-14T08:06:39.958272","APOAPSIS":"548.276","MEAN_ANOMALY":"258.0811","FILE":"3860488","INCLINATION":"53.0534","PERIAPSIS":"546.174","PERIOD":"95.592","TIME_SYSTEM":"UTC","OBJECT_ID":"2020-038Q","BSTAR":"0.00017696000000","MEAN_MOTION":"15.06396313","REV_AT_EPOCH":"15262","EPHEMERIS_TYPE":"0","RA_OF_ASC_NODE":"95.8841","MEAN_MOTION_DOT":"0.00002355","CENTER_NAME":"EARTH","LAUNCH_DATE":"2020-06-13","SEMIMAJOR_AXIS":"6925.360","OBJECT_NAME":"STARLINK-1500","GP_ID":"228082241","COUNTRY_CODE":"US","ELEMENT_SET_NO":"999","ARG_OF_PERICENTER":"102.0348","MEAN_ELEMENT_THEORY":"SGP4","RCS_SIZE":"LARGE","TLE_LINE2":"2 45744  53.0534  95.8841 0001518 102.0348 258.0811 15.06396313152622","SITE":"AFETR"},{"RA_OF_ASC_NODE":"93.8489","MEAN_MOTION_DOT":"0.00004043","CENTER_NAME":"EARTH","LAUNCH_DATE":"2020-06-13","SEMIMAJOR_AXIS":"6925.373","OBJECT_NAME":"STARLINK-1503","COUNTRY_CODE":"US","GP_ID":"228104942","ARG_OF_PERICENTER":"107.7503","ELEMENT_SET_NO":"999","MEAN_ELEMENT_THEORY":"SGP4","TLE_LINE2":"2 45745  53.0531  93.8489 0001417 107.7503 252.3640 15.06392019151769","RCS_SIZE":"LARGE","SITE":"AFETR","TIME_SYSTEM":"UTC","OBJECT_ID":"2020-038R","BSTAR":"0.00029019000000","MEAN_MOTION":"15.06392019","REV_AT_EPOCH":"15176","EPHEMERIS_TYPE":"0","EPOCH":"2023-03-14T18:59:30.040224","REF_FRAME":"TEME","APOAPSIS":"548.219","FILE":"3860643","INCLINATION":"53.0531","MEAN_ANOMALY":"252.3640","PERIAPSIS":"546.257","PERIOD":"95.593","DECAY_DATE":null,"TLE_LINE1":"1 45745U 20038R   23073.79131991  .00004043  00000-0  29019-3 0  9998","CLASSIFICATION_TYPE":"U","MEAN_MOTION_DDOT":"0.0000000000000","OBJECT_TYPE":"PAYLOAD","ECCENTRICITY":"0.00014170","NORAD_CAT_ID":"45745"},{"PERIOD":"95.594","FILE":"3860373","INCLINATION":"53.0545","MEAN_ANOMALY":"283.7326","PERIAPSIS":"546.043","APOAPSIS":"548.586","EPOCH":"2023-03-14T08:11:55.697568","REF_FRAME":"TEME","MEAN_MOTION_DDOT":"0.0000000000000","ECCENTRICITY":"0.00018360","OBJECT_TYPE":"PAYLOAD","NORAD_CAT_ID":"45746","DECAY_DATE":null,"TLE_LINE1":"1 45746U 20038S   23073.34161687 -.00013196  00000-0 -86936-3 0  9997","CLASSIFICATION_TYPE":"U","SITE":"AFETR","OBJECT_NAME":"STARLINK-1504","COUNTRY_CODE":"US","GP_ID":"228072250","ELEMENT_SET_NO":"999","ARG_OF_PERICENTER":"76.3867","MEAN_ELEMENT_THEORY":"SGP4","RCS_SIZE":"LARGE","TLE_LINE2":"2 45746  53.0545  95.8661 0001836  76.3867 283.7326 15.06367189151699","SEMIMAJOR_AXIS":"6925.449","LAUNCH_DATE":"2020-06-13","RA_OF_ASC_NODE":"95.8661","MEAN_MOTION_DOT":"-0.00013196","CENTER_NAME":"EARTH","REV_AT_EPOCH":"15169","EPHEMERIS_TYPE":"0","OBJECT_ID":"2020-038S","TIME_SYSTEM":"UTC","BSTAR":"-0.00086936000000","MEAN_MOTION":"15.06367189"},{"PERIAPSIS":"545.936","MEAN_ANOMALY":"237.4434","FILE":"3860643","INCLINATION":"53.0530","PERIOD":"95.592","EPOCH":"2023-03-14T17:50:32.066016","REF_FRAME":"TEME","APOAPSIS":"548.497","NORAD_CAT_ID":"45747","ECCENTRICITY":"0.00018490","OBJECT_TYPE":"PAYLOAD","MEAN_MOTION_DDOT":"0.0000000000000","CLASSIFICATION_TYPE":"U","TLE_LINE1":"1 45747U 20038T   23073.74342669  .00005021  00000-0  35573-3 0  9990","DECAY_DATE":null,"RCS_SIZE":"LARGE","TLE_LINE2":"2 45747  53.0530  94.0653 0001849 122.6733 237.4434 15.06398918151765","GP_ID":"228105932","MEAN_ELEMENT_THEORY":"SGP4","COUNTRY_CODE":"US","ELEMENT_SET_NO":"999","ARG_OF_PERICENTER":"122.6733","OBJECT_NAME":"STARLINK-1506","SITE":"AFETR","MEAN_MOTION_DOT":"0.00005021","CENTER_NAME":"EARTH","RA_OF_ASC_NODE":"94.0653","SEMIMAJOR_AXIS":"6925.352","LAUNCH_DATE":"2020-06-13","EPHEMERIS_TYPE":"0","REV_AT_EPOCH":"15176","MEAN_MOTION":"15.06398918","BSTAR":"0.00035573000000","OBJECT_ID":"2020-038T","TIME_SYSTEM":"UTC"},{"PERIOD":"95.592","FILE":"3860476","MEAN_ANOMALY":"266.1436","INCLINATION":"53.0550","PERIAPSIS":"546.221","APOAPSIS":"548.232","EPOCH":"2023-03-14T11:11:05.615808","REF_FRAME":"TEME","MEAN_MOTION_DDOT":"0.0000000000000","ECCENTRICITY":"0.00014520","OBJECT_TYPE":"PAYLOAD","NORAD_CAT_ID":"45748","DECAY_DATE":null,"TLE_LINE1":"1 45748U 20038U   23073.46603722  .00000567  00000-0  56960-4 0  9994","CLASSIFICATION_TYPE":"U","SITE":"AFETR","OBJECT_NAME":"STARLINK-1507","COUNTRY_CODE":"US","GP_ID":"228081758","ELEMENT_SET_NO":"999","ARG_OF_PERICENTER":"93.9719","MEAN_ELEMENT_THEORY":"SGP4","RCS_SIZE":"LARGE","TLE_LINE2":"2 45748  53.0550  95.3063 0001452  93.9719 266.1436 15.06395693152658","LAUNCH_DATE":"2020-06-13","SEMIMAJOR_AXIS":"6925.362","RA_OF_ASC_NODE":"95.3063","CENTER_NAME":"EARTH","MEAN_MOTION_DOT":"0.00000567","REV_AT_EPOCH":"15265","EPHEMERIS_TYPE":"0","OBJECT_ID":"2020-038U","TIME_SYSTEM":"UTC","BSTAR":"0.00005696000000","MEAN_MOTION":"15.06395693"},{"RCS_SIZE":"LARGE","TLE_LINE2":"2 45750  53.0553  73.7031 0001910  42.5872 317.5265 15.06387695152067","OBJECT_NAME":"STARLINK-1391","GP_ID":"228104444","ELEMENT_SET_NO":"999","COUNTRY_CODE":"US","ARG_OF_PERICENTER":"42.5872","MEAN_ELEMENT_THEORY":"SGP4","SITE":"AFETR","MEAN_MOTION_DOT":"0.00000684","CENTER_NAME":"EARTH","RA_OF_ASC_NODE":"73.7031","LAUNCH_DATE":"2020-06-13","SEMIMAJOR_AXIS":"6925.386","REV_AT_EPOCH":"15206","EPHEMERIS_TYPE":"0","MEAN_MOTION":"15.06387695","OBJECT_ID":"2020-038W","TIME_SYSTEM":"UTC","BSTAR":"0.00006486700000","PERIAPSIS":"545.929","FILE":"3860643","MEAN_ANOMALY":"317.5265","INCLINATION":"53.0553","PERIOD":"95.593","EPOCH":"2023-03-14T19:49:56.477568","REF_FRAME":"TEME","APOAPSIS":"548.574","OBJECT_TYPE":"PAYLOAD","ECCENTRICITY":"0.00019100","NORAD_CAT_ID":"45750","MEAN_MOTION_DDOT":"0.0000000000000","TLE_LINE1":"1 45750U 20038W   23073.82634812  .00000684  00000-0  64867-4 0  9996","CLASSIFICATION_TYPE":"U","DECAY_DATE":null},{"MEAN_MOTION":"15.06371612","TIME_SYSTEM":"UTC","OBJECT_ID":"2020-038X","BSTAR":"-0.00007259400000","REV_AT_EPOCH":"15204","EPHEMERIS_TYPE":"0","SEMIMAJOR_AXIS":"6925.436","LAUNCH_DATE":"2020-06-13","MEAN_MOTION_DOT":"-0.00001362","CENTER_NAME":"EARTH","RA_OF_ASC_NODE":"74.3042","SITE":"AFETR","TLE_LINE2":"2 45751  53.0542  74.3042 0001813  95.5558 264.5638 15.06371612152041","RCS_SIZE":"LARGE","OBJECT_NAME":"STARLINK-1464","GP_ID":"228105693","ARG_OF_PERICENTER":"95.5558","COUNTRY_CODE":"US","ELEMENT_SET_NO":"999","MEAN_ELEMENT_THEORY":"SGP4","TLE_LINE1":"1 45751U 20038X   23073.68996050 -.00001362  00000-0 -72594-4 0  9998","CLASSIFICATION_TYPE":"U","DECAY_DATE":null,"OBJECT_TYPE":"PAYLOAD","ECCENTRICITY":"0.00018130","NORAD_CAT_ID":"45751","MEAN_MOTION_DDOT":"0.0000000000000","APOAPSIS":"548.556","EPOCH":"2023-03-14T16:33:32.587200","REF_FRAME":"TEME","PERIOD":"95.594","PERIAPSIS":"546.045","INCLINATION":"53.0542","FILE":"3860643","MEAN_ANOMALY":"264.5638"}];
